STARLINK-31488          
1 59009U 24036M   26068.34469128 -.00005283  00000+0 -16641-3 0  9997
2 59009  53.1598  79.5005 0000673  99.9246 260.1831 15.30195249115273
KUIPER-00266            
1 67789U 26030AB  26067.91293632  .00029701  00000+0  98220-3 0  9996
2 67789  51.8807 223.5904 0022313  72.5291 287.8129 15.30874235  4964
