[{"OBJECT_NAME":"STARLINK-31488","OBJECT_ID":"2024-036M","EPOCH":"2026-03-09T08:16:21.326592","MEAN_MOTION":15.30195249,"ECCENTRICITY":6.737e-5,"INCLINATION":53.1598,"RA_OF_ASC_NODE":79.5005,"ARG_OF_PERICENTER":99.9246,"MEAN_ANOMALY":260.1831,"EPHEMERIS_TYPE":0,"CLASSIFICATION_TYPE":"U","NORAD_CAT_ID":59009,"ELEMENT_SET_NO":999,"REV_AT_EPOCH":11527,"BSTAR":-0.00016641373,"MEAN_MOTION_DOT":-5.283e-5,"MEAN_MOTION_DDOT":0},{"OBJECT_NAME":"KUIPER-00266","OBJECT_ID":"2026-030AB","EPOCH":"2026-03-08T21:54:37.698048","MEAN_MOTION":15.30874235,"ECCENTRICITY":0.0022313,"INCLINATION":51.8807,"RA_OF_ASC_NODE":223.5904,"ARG_OF_PERICENTER":72.5291,"MEAN_ANOMALY":287.8129,"EPHEMERIS_TYPE":0,"CLASSIFICATION_TYPE":"U","NORAD_CAT_ID":67789,"ELEMENT_SET_NO":999,"REV_AT_EPOCH":496,"BSTAR":0.00098219753,"MEAN_MOTION_DOT":0.00029701,"MEAN_MOTION_DDOT":0}]
